satname,norad_id,inclination_deg,eccentricity,mean_motion_rev_per_day,perigee_km,apogee_km,l1,l2
STARLINK-1143,45179,53.0455,0.0007041,15.63475724,372.86938334887964,382.3828489690559,1 45179U 20012B   26071.69861510  .00104710  00000+0  11020-2 0  9991,2 45179  53.0455 315.1771 0007041 110.6425 249.5345 15.63475724336396
STARLINK-1202,45183,53.1624,0.000102,15.30179977,474.5758071308546,475.9739031493036,1 45183U 20012F   26071.88893715  .00002078  00000+0  82317-4 0  9992,2 45183  53.1624  24.3916 0001020  86.0254 274.0863 15.30179977335445
STARLINK-1216,45185,53.1597,0.0001187,15.30187128,474.44000570782464,476.0670006132759,1 45185U 20012H   26071.29162383  .00002980  00000+0  11275-3 0  9995,2 45185  53.1597  27.1443 0001187  83.0443 277.0693 15.30187128335297
STARLINK-1225,45187,53.161,0.0001114,15.30188759,474.48516606504745,476.01210038413046,1 45187U 20012K   26071.28852418  .00019880  00000+0  68176-3 0  9990,2 45187  53.1610  27.5997 0001114  95.1736 264.9392 15.30188759335339
STARLINK-1230,45189,53.161,0.0001526,15.30199068,474.17203025429717,476.26367415519053,1 45189U 20012M   26071.29801593  .00003881  00000+0  14309-3 0  9994,2 45189  53.1610  27.6166 0001526 110.3401 249.7764 15.30199068332567
STARLINK-1234,45190,53.0451,0.0003937,15.63249712,375.6172580477478,380.9372586347663,1 45190U 20012N   26072.00002314  .00125453  00000+0  13285-2 0  9991,2 45190  53.0451 309.1094 0003937 311.5497 177.0929 15.63249712  5861
STARLINK-1269,45197,53.1612,0.0001294,15.30208234,474.3036637132891,476.07730486622313,1 45197U 20012V   26071.16421160  .00004262  00000+0  15592-3 0  9996,2 45197  53.1612  28.0968 0001294 105.1325 254.9819 15.30208234335290
STARLINK-1154,45198,53.0499,0.0007262,15.46537414,421.922636045183,431.8062201193288,1 45198U 20012W   26071.07742701  .00079908  00000+0  15734-2 0  9990,2 45198  53.0499 358.6132 0007262  99.6367 260.5460 15.46537414335660
STARLINK-1199,45201,53.1611,0.0001163,15.30191412,474.44366393137807,476.0377595871332,1 45201U 20012Z   26071.85196267  .00001600  00000+0  66136-4 0  9999,2 45201  53.1611   9.1511 0001163  88.8289 271.2845 15.30191412335649
STARLINK-1209,45206,53.0474,0.0006228,15.51685955,407.5745161181476,416.0320657445309,1 45206U 20012AE  26071.70282274  .00092321  00000+0  15143-2 0  9992,2 45206  53.0474 318.9557 0006228 285.5202  74.5119 15.51685955335381
STARLINK-1231,45212,53.0499,0.0004428,15.2151068,498.23700217411624,504.32941671159915,1 45212U 20012AL  26071.96484575  .00049933  00000+0  21896-2 0  9998,2 45212  53.0499   0.7479 0004428 101.5641 258.5852 15.21510680335723
STARLINK-1271,45217,53.1591,0.0001457,15.30202094,474.21028463434595,476.2073496054545,1 45217U 20012AR  26071.84987068  .00003573  00000+0  13271-3 0  9994,2 45217  53.1591   9.2836 0001457  92.5426 267.5742 15.30202094335648
STARLINK-1191,45222,53.1603,0.0001095,15.30282967,474.2169411776522,475.71777103163913,1 45222U 20012AW  26072.00047457  .00021340  00000+0  72871-3 0  9991,2 45222  53.1603 343.4478 0001095  85.8964 274.2162 15.30282967336024
STARLINK-1212,45223,53.0496,0.0005934,15.5280032,404.5271520953611,412.5815974189236,1 45223U 20012AX  26072.00550168  .00113787  00000+0  17867-2 0  9990,2 45223  53.0496 334.1192 0005934 127.8352 232.3194 15.52800320336155
STARLINK-1215,45225,53.1608,0.0001348,15.30192886,474.31247590103885,476.16014534558326,1 45225U 20012AZ  26071.98675843  .00004142  00000+0  15194-3 0  9992,2 45225  53.1608 342.9891 0001348  84.7186 275.3968 15.30192886335980
STARLINK-1221,45227,53.0653,0.0003214,15.42040752,437.8957618517852,442.2785163283934,1 45227U 20012BB  26071.76341050  .00018890  00000+0  44416-3 0  9994,2 45227  53.0653 255.0477 0003214  54.7005 305.4300 15.42040752337182
STARLINK-1222,45228,53.0561,0.0003794,15.49685269,415.0677129962269,420.22435316172687,1 45228U 20012BC  26071.71667322  .00033271  00000+0  59566-3 0  9995,2 45228  53.0561 328.2983 0003794  94.7037 265.4404 15.49685269336092
STARLINK-1226,45229,53.1612,0.0001592,15.30254281,473.9619730802806,476.1440287765754,1 45229U 20012BD  26071.03654768  .00016097  00000+0  55349-3 0  9993,2 45229  53.1612 347.7224 0001592  88.6460 271.4723 15.30254281335772
STARLINK-1227,45230,53.1599,0.0001125,15.31037275,471.9455355531918,473.48697753591296,1 45230U 20012BE  26071.77489440  .00000888  00000+0  41118-4 0  9990,2 45230  53.1599 344.5171 0001125 109.2492 250.8631 15.31037275336000
STARLINK-1246,45235,53.16,0.0001469,15.30197696,474.2151903270851,476.22870718623017,1 45235U 20012BK  26071.89209633  .00002696  00000+0  10313-3 0  9993,2 45235  53.1600  24.3750 0001469  97.3940 262.7228 15.30197696335466
STARLINK-1270,45237,53.051,0.0004033,15.47590341,421.03427395288236,426.52069817734355,1 45237U 20012BM  26071.74744235  .00102344  00000+0  19364-2 0  9996,2 45237  53.0510 332.9449 0004033 109.4949 250.6493 15.47590341336142
STARLINK-1279,45360,53.0428,0.0002239,15.57605385,393.0732419755086,396.1060689718297,1 45360U 20019A   26071.32842764  .00068612  00000+0  91133-3 0  9994,2 45360  53.0428  85.8833 0002239 150.9296 209.1840 15.57605385331089
STARLINK-1301,45361,53.0419,8.12e-05,15.65261848,371.93764281640233,373.03394395804753,1 45361U 20019B   26071.46989381  .00059186  00000+0  58664-3 0  9995,2 45361  53.0419  90.4248 0000812 191.6217 168.4779 15.65261848331047
STARLINK-1262,45366,53.1568,0.0001346,15.29345361,476.84525087336806,478.6908605143599,1 45366U 20019G   26072.00002314  .00035447  00000+0  12352-2 0  9990,2 45366  53.1568 149.7549 0001346  87.4940 246.6470 15.29345361  5798
STARLINK-1273,45367,53.0516,0.0002747,15.44752629,430.2342463780815,433.97579334379316,1 45367U 20019H   26071.51122260  .00076128  00000+0  15957-2 0  9994,2 45367  53.0516 141.3861 0002747  13.6184 346.4895 15.44752629330330
STARLINK-1276,45368,53.0771,4.61e-05,15.12635524,527.8478753528761,528.4846365130743,1 45368U 20019J   26072.00002314  .00085765  00000+0  48104-2 0  9994,2 45368  53.0771 151.6845 0000461  87.2111 302.3985 15.12635524  5742
STARLINK-1277,45369,53.0509,0.0004488,15.49485689,415.1793607268255,421.27977936009756,1 45369U 20019K   26072.00002314  .00108602  00000+0  19210-2 0  9997,2 45369  53.0509 136.7491 0004488  21.3321  65.7132 15.49485689  5916
STARLINK-1281,45370,53.1579,0.0001919,15.30089439,474.22998289921634,476.8604261293085,1 45370U 20019L   26071.61063000  .00135642  00000+0  45243-2 0  9993,2 45370  53.1579 151.7212 0001919  75.2318 284.8895 15.30089439330200
STARLINK-1300,45374,53.1593,0.0001547,15.2937363,476.6229767855657,478.744167670613,1 45374U 20019Q   26071.49787685  .00004569  00000+0  17049-3 0  9992,2 45374  53.1593 152.2075 0001547  54.6646 305.4499 15.29373630330189
STARLINK-1302,45375,53.0524,0.0002853,15.54128888,402.7508877469181,406.6211665662149,1 45375U 20019R   26071.60001248  .00100418  00000+0  15068-2 0  9998,2 45375  53.0524 137.7105 0002853 316.4889  43.5895 15.54128888330398
STARLINK-1304,45376,53.0512,0.0002557,15.48832985,418.40051815955667,421.87715642274725,1 45376U 20019S   26071.54962484  .00085601  00000+0  15559-2 0  9991,2 45376  53.0512 135.8042 0002557 354.2985   5.7993 15.48832985330418
STARLINK-1305,45377,53.0452,0.000299,15.53662483,404.01494525461294,408.0718851429019,1 45377U 20019T   26071.54103419  .00102225  00000+0  15596-2 0  9990,2 45377  53.0452 118.5041 0002990  96.8374 263.2975 15.53662483330669
STARLINK-1319,45379,53.0444,0.0002576,15.65618722,369.721213863274,373.1986061913203,1 45379U 20019V   26071.99062468  .00058215  00000+0  56898-3 0  9999,2 45379  53.0444 113.5012 0002576  61.2318 298.8955 15.65618722330773
STARLINK-1266,45383,53.0493,0.0004707,15.46007651,425.2150515082094,431.6227432299929,1 45383U 20019Z   26072.00002314  .00113506  00000+0  22637-2 0  9999,2 45383  53.0493 117.1796 0004707  25.9680 217.5264 15.46007651  5905
STARLINK-1267,45384,53.0513,0.00026,15.50294591,414.09881636120735,417.63169753482,1 45384U 20019AA  26071.39237901  .00092116  00000+0  15884-2 0  9992,2 45384  53.0513 114.0352 0002600 288.4782  71.5944 15.50294591330700
STARLINK-1272,45386,53.0439,0.0002517,15.57196663,394.0697150840988,397.47970223823904,1 45386U 20019AC  26072.00002314  .00051724  00000+0  70068-3 0  9997,2 45386  53.0439  93.7289 0002517 120.9221 204.5909 15.57196663  5678
STARLINK-1274,45387,53.0274,0.0003078,15.47650405,421.5079225311747,425.69507275032265,1 45387U 20019AD  26072.01620769  .00090264  00000+0  17081-2 0  9996,2 45387  53.0274  87.0280 0003078 245.5853 114.4832 15.47650405331136
STARLINK-1280,45388,53.0425,0.0001453,15.65865711,369.7695210806869,371.73074768193874,1 45388U 20019AE  26071.52320189  .00057498  00000+0  55661-3 0  9994,2 45388  53.0425 108.5648 0001453  80.0471 280.0707 15.65865711330784
STARLINK-1283,45389,53.0437,0.0003012,15.57100294,394.0138111688302,398.09458394623834,1 45389U 20019AF  26071.35230006  .00117150  00000+0  15712-2 0  9998,2 45389  53.0437  97.0828 0003012 254.2961 105.7718 15.57100294330944
STARLINK-1284,45390,53.0489,0.0004265,15.5235665,406.95234759812683,412.74249831090765,1 45390U 20019AG  26071.51157295  .00089130  00000+0  14286-2 0  9997,2 45390  53.0489 117.4048 0004265  27.1785 332.9446 15.52356650330661
STARLINK-1297,45395,53.0479,0.0005332,15.54845442,398.98645761064654,406.21743762438564,1 45395U 20019AM  26071.96828321  .00112788  00000+0  16447-2 0  9993,2 45395  53.0479 114.8625 0005332  29.9389 330.1925 15.54845442329926
STARLINK-1307,45397,53.055,0.0002398,15.5018349,414.56058901407323,417.81914818025143,1 45397U 20019AP  26071.51965486  .00025348  00000+0  44831-3 0  9994,2 45397  53.0550 117.1642 0002398  45.1443 314.9759 15.50183490330496
STARLINK-1255,45399,53.042,0.0001751,15.52401961,408.52678572336754,410.90389161237,1 45399U 20019AR  26071.45783579  .00099709  00000+0  15929-2 0  9997,2 45399  53.0420  89.4142 0001751 354.2703   5.8285 15.52401961330864
